start=new Date('2023-01-01T00:00:00.000Z').valueOf();
sats=[{"CLASSIFICATION_TYPE":"U","EPHEMERIS_TYPE":"0","GP_ID":"221888197","FILE":"3728081","MEAN_ELEMENT_THEORY":"SGP4","INCLINATION":"53.0526","TIME_SYSTEM":"UTC","SEMIMAJOR_AXIS":"6925.353","EPOCH":"2022-12-31T19:08:44.488896","MEAN_ANOMALY":"285.8011","CENTER_NAME":"EARTH","LAUNCH_DATE":"2020-02-17","PERIAPSIS":"546.051","TLE_LINE1":"1 45221U 20012AV  22365.79773714  .00000338  00000-0  41585-4 0  9993","OBJECT_TYPE":"PAYLOAD","SITE":"AFETR","TLE_LINE2":"2 45221  53.0526 191.5370 0001684  74.3164 285.8011 15.06398683159972","APOAPSIS":"548.384","MEAN_MOTION_DOT":"0.00000338","REF_FRAME":"TEME","ECCENTRICITY":"0.00016840","REV_AT_EPOCH":"15997","DECAY_DATE":null,"OBJECT_NAME":"STARLINK-1189","NORAD_CAT_ID":"45221","BSTAR":"0.00004158500000","MEAN_MOTION":"15.06398683","OBJECT_ID":"2020-012AV","RA_OF_ASC_NODE":"191.5370","ELEMENT_SET_NO":"999","ARG_OF_PERICENTER":"74.3164","COUNTRY_CODE":"US","MEAN_MOTION_DDOT":"0.0000000000000","RCS_SIZE":"LARGE","PERIOD":"95.592"},{"FILE":"3728081","MEAN_ELEMENT_THEORY":"SGP4","INCLINATION":"53.0548","GP_ID":"221886958","EPHEMERIS_TYPE":"0","CLASSIFICATION_TYPE":"U","OBJECT_TYPE":"PAYLOAD","CENTER_NAME":"EARTH","PERIAPSIS":"546.241","TLE_LINE1":"1 45222U 20012AW  22365.80512357  .00001682  00000-0  13183-3 0  9995","LAUNCH_DATE":"2020-02-17","SEMIMAJOR_AXIS":"6925.369","EPOCH":"2022-12-31T19:19:22.676448","MEAN_ANOMALY":"277.6659","TIME_SYSTEM":"UTC","DECAY_DATE":null,"REV_AT_EPOCH":"15997","NORAD_CAT_ID":"45222","OBJECT_NAME":"STARLINK-1191","REF_FRAME":"TEME","ECCENTRICITY":"0.00014340","MEAN_MOTION_DOT":"0.00001682","TLE_LINE2":"2 45222  53.0548 191.5088 0001434  82.4493 277.6659 15.06393347159970","SITE":"AFETR","APOAPSIS":"548.227","RCS_SIZE":"LARGE","PERIOD":"95.593","MEAN_MOTION_DDOT":"0.0000000000000","COUNTRY_CODE":"US","ARG_OF_PERICENTER":"82.4493","OBJECT_ID":"2020-012AW","MEAN_MOTION":"15.06393347","ELEMENT_SET_NO":"999","RA_OF_ASC_NODE":"191.5088","BSTAR":"0.00013183000000"},{"TLE_LINE2":"2 45223  53.0538 191.3822 0001626  73.7432 286.3736 15.06394496159983","SITE":"AFETR","APOAPSIS":"548.356","MEAN_MOTION_DOT":"0.00002205","REF_FRAME":"TEME","ECCENTRICITY":"0.00016260","DECAY_DATE":null,"REV_AT_EPOCH":"15998","NORAD_CAT_ID":"45223","OBJECT_NAME":"STARLINK-1212","BSTAR":"0.00016688000000","MEAN_MOTION":"15.06394496","OBJECT_ID":"2020-012AX","ELEMENT_SET_NO":"999","RA_OF_ASC_NODE":"191.3822","MEAN_MOTION_DDOT":"0.0000000000000","COUNTRY_CODE":"US","ARG_OF_PERICENTER":"73.7432","RCS_SIZE":"LARGE","PERIOD":"95.592","CLASSIFICATION_TYPE":"U","EPHEMERIS_TYPE":"0","GP_ID":"221887208","FILE":"3728081","MEAN_ELEMENT_THEORY":"SGP4","INCLINATION":"53.0538","TIME_SYSTEM":"UTC","SEMIMAJOR_AXIS":"6925.365","EPOCH":"2022-12-31T19:49:52.133376","MEAN_ANOMALY":"286.3736","CENTER_NAME":"EARTH","PERIAPSIS":"546.104","TLE_LINE1":"1 45223U 20012AX  22365.82629784  .00002205  00000-0  16688-3 0  9996","LAUNCH_DATE":"2020-02-17","OBJECT_TYPE":"PAYLOAD"},{"RA_OF_ASC_NODE":"191.6193","ELEMENT_SET_NO":"999","OBJECT_ID":"2020-012AZ","MEAN_MOTION":"15.06390067","BSTAR":"0.00013853000000","PERIOD":"95.593","RCS_SIZE":"LARGE","COUNTRY_CODE":"US","ARG_OF_PERICENTER":"99.4276","MEAN_MOTION_DDOT":"0.0000000000000","MEAN_MOTION_DOT":"0.00001782","APOAPSIS":"548.176","TLE_LINE2":"2 45225  53.0543 191.6193 0001346  99.4276 260.6865 15.06390067159927","SITE":"AFETR","OBJECT_NAME":"STARLINK-1215","NORAD_CAT_ID":"45225","REV_AT_EPOCH":"15992","DECAY_DATE":null,"ECCENTRICITY":"0.00013460","REF_FRAME":"TEME","MEAN_ANOMALY":"260.6865","SEMIMAJOR_AXIS":"6925.379","EPOCH":"2022-12-31T18:42:14.278752","TIME_SYSTEM":"UTC","OBJECT_TYPE":"PAYLOAD","LAUNCH_DATE":"2020-02-17","TLE_LINE1":"1 45225U 20012AZ  22365.77933193  .00001782  00000-0  13853-3 0  9994","PERIAPSIS":"546.312","CENTER_NAME":"EARTH","EPHEMERIS_TYPE":"0","CLASSIFICATION_TYPE":"U","INCLINATION":"53.0543","MEAN_ELEMENT_THEORY":"SGP4","FILE":"3728081","GP_ID":"221887959"},{"MEAN_MOTION":"15.06400524","OBJECT_ID":"2020-012BA","ELEMENT_SET_NO":"999","RA_OF_ASC_NODE":"191.5906","BSTAR":"0.00014775000000","RCS_SIZE":"LARGE","PERIOD":"95.592","MEAN_MOTION_DDOT":"0.0000000000000","COUNTRY_CODE":"US","ARG_OF_PERICENTER":"85.2561","MEAN_MOTION_DOT":"0.00001920","TLE_LINE2":"2 45226  53.0529 191.5906 0001430  85.2561 274.8591 15.06400524159885","SITE":"AFETR","APOAPSIS":"548.202","DECAY_DATE":null,"REV_AT_EPOCH":"15988","NORAD_CAT_ID":"45226","OBJECT_NAME":"STARLINK-1217","REF_FRAME":"TEME","ECCENTRICITY":"0.00014300","SEMIMAJOR_AXIS":"6925.347","EPOCH":"2022-12-31T18:52:50.327904","MEAN_ANOMALY":"274.8591","TIME_SYSTEM":"UTC","OBJECT_TYPE":"PAYLOAD","CENTER_NAME":"EARTH","TLE_LINE1":"1 45226U 20012BA  22365.78669361  .00001920  00000-0  14775-3 0  9997","PERIAPSIS":"546.222","LAUNCH_DATE":"2020-02-17","EPHEMERIS_TYPE":"0","CLASSIFICATION_TYPE":"U","MEAN_ELEMENT_THEORY":"SGP4","FILE":"3728081","INCLINATION":"53.0529","GP_ID":"221887698"},{"CENTER_NAME":"EARTH","LAUNCH_DATE":"2020-02-17","PERIAPSIS":"546.268","TLE_LINE1":"1 45227U 20012BB  22365.80879766  .00000459  00000-0  49692-4 0  9996","OBJECT_TYPE":"PAYLOAD","TIME_SYSTEM":"UTC","SEMIMAJOR_AXIS":"6925.362","EPOCH":"2022-12-31T19:24:40.117824","MEAN_ANOMALY":"289.7459","GP_ID":"221886458","FILE":"3728081","MEAN_ELEMENT_THEORY":"SGP4","INCLINATION":"53.0531","CLASSIFICATION_TYPE":"U","EPHEMERIS_TYPE":"0","COUNTRY_CODE":"US","ARG_OF_PERICENTER":"70.3679","MEAN_MOTION_DDOT":"0.0000000000000","RCS_SIZE":"LARGE","PERIOD":"95.592","BSTAR":"0.00004969200000","MEAN_MOTION":"15.06395758","OBJECT_ID":"2020-012BB","RA_OF_ASC_NODE":"191.4975","ELEMENT_SET_NO":"999","REF_FRAME":"TEME","ECCENTRICITY":"0.00013840","REV_AT_EPOCH":"15989","DECAY_DATE":null,"OBJECT_NAME":"STARLINK-1221","NORAD_CAT_ID":"45227","TLE_LINE2":"2 45227  53.0531 191.4975 0001384  70.3679 289.7459 15.06395758159898","SITE":"AFETR","APOAPSIS":"548.185","MEAN_MOTION_DOT":"0.00000459"},{"CLASSIFICATION_TYPE":"U","EPHEMERIS_TYPE":"0","GP_ID":"221886708","INCLINATION":"53.0528","MEAN_ELEMENT_THEORY":"SGP4","FILE":"3728081","TIME_SYSTEM":"UTC","MEAN_ANOMALY":"295.9044","SEMIMAJOR_AXIS":"6925.370","EPOCH":"2022-12-31T19:29:58.935552","LAUNCH_DATE":"2020-02-17","PERIAPSIS":"546.211","TLE_LINE1":"1 45228U 20012BC  22365.81248768  .00001517  00000-0  12076-3 0  9991","CENTER_NAME":"EARTH","OBJECT_TYPE":"PAYLOAD","APOAPSIS":"548.258","TLE_LINE2":"2 45228  53.0528 191.4734 0001478  64.2098 295.9044 15.06393078159868","SITE":"AFETR","MEAN_MOTION_DOT":"0.00001517","ECCENTRICITY":"0.00014780","REF_FRAME":"TEME","OBJECT_NAME":"STARLINK-1222","NORAD_CAT_ID":"45228","REV_AT_EPOCH":"15986","DECAY_DATE":null,"BSTAR":"0.00012076000000","RA_OF_ASC_NODE":"191.4734","ELEMENT_SET_NO":"999","MEAN_MOTION":"15.06393078","OBJECT_ID":"2020-012BC","ARG_OF_PERICENTER":"64.2098","COUNTRY_CODE":"US","MEAN_MOTION_DDOT":"0.0000000000000","PERIOD":"95.593","RCS_SIZE":"LARGE"},{"OBJECT_NAME":"STARLINK-1226","NORAD_CAT_ID":"45229","REV_AT_EPOCH":"15985","DECAY_DATE":null,"ECCENTRICITY":"0.00013330","REF_FRAME":"TEME","MEAN_MOTION_DOT":"0.00000941","TLE_LINE2":"2 45229  53.0523 191.9380 0001333  74.8565 285.2571 15.06384271159853","APOAPSIS":"548.185","SITE":"AFETR","PERIOD":"95.593","RCS_SIZE":"LARGE","ARG_OF_PERICENTER":"74.8565","COUNTRY_CODE":"US","MEAN_MOTION_DDOT":"0.0000000000000","RA_OF_ASC_NODE":"191.9380","ELEMENT_SET_NO":"999","OBJECT_ID":"2020-012BD","MEAN_MOTION":"15.06384271","BSTAR":"0.00008209400000","INCLINATION":"53.0523","FILE":"3728081","MEAN_ELEMENT_THEORY":"SGP4","GP_ID":"221887459","EPHEMERIS_TYPE":"0","CLASSIFICATION_TYPE":"U","OBJECT_TYPE":"PAYLOAD","LAUNCH_DATE":"2020-02-17","PERIAPSIS":"546.339","TLE_LINE1":"1 45229U 20012BD  22365.70929831  .00000941  00000-0  82094-4 0  9995","CENTER_NAME":"EARTH","MEAN_ANOMALY":"285.2571","SEMIMAJOR_AXIS":"6925.397","EPOCH":"2022-12-31T17:01:23.373984","TIME_SYSTEM":"UTC"},{"MEAN_ELEMENT_THEORY":"SGP4","FILE":"3728081","INCLINATION":"53.0540","GP_ID":"221888198","EPHEMERIS_TYPE":"0","CLASSIFICATION_TYPE":"U","OBJECT_TYPE":"PAYLOAD","CENTER_NAME":"EARTH","PERIAPSIS":"546.200","TLE_LINE1":"1 45230U 20012BE  22365.70560480  .00000707  00000-0  66388-4 0  9996","LAUNCH_DATE":"2020-02-17","EPOCH":"2022-12-31T16:56:04.254720","SEMIMAJOR_AXIS":"6925.383","MEAN_ANOMALY":"273.6905","TIME_SYSTEM":"UTC","DECAY_DATE":null,"REV_AT_EPOCH":"15997","NORAD_CAT_ID":"45230","OBJECT_NAME":"STARLINK-1227","REF_FRAME":"TEME","ECCENTRICITY":"0.00015130","MEAN_MOTION_DOT":"0.00000707","TLE_LINE2":"2 45230  53.0540 191.9565 0001513  86.4257 273.6905 15.06388678159976","SITE":"AFETR","APOAPSIS":"548.296","RCS_SIZE":"LARGE","PERIOD":"95.593","MEAN_MOTION_DDOT":"0.0000000000000","ARG_OF_PERICENTER":"86.4257","COUNTRY_CODE":"US","MEAN_MOTION":"15.06388678","OBJECT_ID":"2020-012BE","ELEMENT_SET_NO":"999","RA_OF_ASC_NODE":"191.9565","BSTAR":"0.00006638800000"},{"ELEMENT_SET_NO":"999","RA_OF_ASC_NODE":"191.6060","OBJECT_ID":"2020-012BG","MEAN_MOTION":"15.06397670","BSTAR":"0.00004999600000","PERIOD":"95.592","RCS_SIZE":"LARGE","MEAN_MOTION_DDOT":"0.0000000000000","ARG_OF_PERICENTER":"63.4160","COUNTRY_CODE":"US","MEAN_MOTION_DOT":"0.00000463","TLE_LINE2":"2 45232  53.0542 191.6060 0001227  63.4160 296.6954 15.06397670159978","SITE":"AFETR","APOAPSIS":"548.070","NORAD_CAT_ID":"45232","OBJECT_NAME":"STARLINK-1235","DECAY_DATE":null,"REV_AT_EPOCH":"15997","ECCENTRICITY":"0.00012270","REF_FRAME":"TEME","MEAN_ANOMALY":"296.6954","SEMIMAJOR_AXIS":"6925.356","EPOCH":"2022-12-31T18:46:08.799456","TIME_SYSTEM":"UTC","OBJECT_TYPE":"PAYLOAD","TLE_LINE1":"1 45232U 20012BG  22365.78204629  .00000463  00000-0  49996-4 0  9991","PERIAPSIS":"546.371","LAUNCH_DATE":"2020-02-17","CENTER_NAME":"EARTH","EPHEMERIS_TYPE":"0","CLASSIFICATION_TYPE":"U","INCLINATION":"53.0542","FILE":"3728081","MEAN_ELEMENT_THEORY":"SGP4","GP_ID":"221886959"}];
